{"type": "FeatureCollection", "features": [{"type": "Feature", "properties": {"mukey": "55109", "musym": "1", "muname": "Badland"}, "geometry": {"type": "Polygon", "coordinates": [[[-110.809762782282, 38.4203877036377], [-110.809674225018, 38.4204011484223], [-110.809589974738, 38.420435745673], [-110.809416070355, 38.4205588785367], [-110.809233918705, 38.4208139617507], [-110.808884236535, 38.4212464933897], [-110.808715681737, 38.4216660992836], [-110.808566791974, 38.4223145168829], [-110.808479577685, 38.4224840355062], [-110.808353004123, 38.4226384564165], [-110.807918370992, 38.4230677338914], [-110.807357598187, 38.4233948936718], [-110.807050908002, 38.4236190076241], [-110.806900179196, 38.4237582918825], [-110.806753427665, 38.4239458615837], [-110.80663512476, 38.4240604440609], [-110.806556759851, 38.4240952283828], [-110.806238083769, 38.4241627488464], [-110.806086508739, 38.4242461418279], [-110.806002736996, 38.4243348641816], [-110.805838530301, 38.42459769921], [-110.805657911069, 38.4249754108751], [-110.805481201821, 38.4252343415876], [-110.805391244084, 38.4253156849975], [-110.805231196908, 38.4253919752549], [-110.805325050648, 38.4260082591566], [-110.805320809414, 38.4261541728298], [-110.805276979727, 38.4264448648966], [-110.805071777471, 38.4268111040616], [-110.804853739022, 38.4270912970488], [-110.804768281918, 38.4271775128968], [-110.804264586082, 38.4276070122224], [-110.803743642828, 38.4279690597206], [-110.803172004579, 38.4283408589326], [-110.802708773155, 38.4285839241232], [-110.801919106174, 38.4290923090879], [-110.801620665051, 38.4293226300333], [-110.801503610754, 38.4293801591056], [-110.800658489664, 38.4296794115922], [-110.800328887208, 38.4298141627617], [-110.800177293773, 38.4298975484616], [-110.800042033329, 38.4299979205369], [-110.799673372993, 38.4303261476204], [-110.799250180888, 38.4307603186279], [-110.799142683085, 38.4309223495135], [-110.798976846414, 38.4310508069669], [-110.79877197923, 38.431137030512], [-110.798501493595, 38.4311941742093], [-110.798273901996, 38.431226254195], [-110.797808967243, 38.4312482453916], [-110.796973129648, 38.4312365835239], [-110.796417090912, 38.4312768269763], [-110.795821742635, 38.4313597577015], [-110.794839470626, 38.431583457452], [-110.794489392462, 38.4316809340754], [-110.793809981411, 38.4319203327723], [-110.79354248113702, 38.4319974], [-110.8100044, 38.4319974], [-110.8100044, 38.42044876842037], [-110.809948135068, 38.4204185173639], [-110.809762782282, 38.4203877036377]]]}}, {"type": "Feature", "properties": {"mukey": "55222", "musym": "9", "muname": "Billings silt loam"}, "geometry": {"type": "Polygon", "coordinates": [[[-110.80287788166477, 38.3899938], [-110.80124880304375, 38.3899938], [-110.801191632243, 38.3900943546284], [-110.80091997523, 38.3904785857623], [-110.800750975282, 38.3907808353784], [-110.800702328654, 38.3909212929347], [-110.800662428323, 38.3911392599045], [-110.800687474491, 38.3916880170461], [-110.800755809103, 38.3920527143776], [-110.800799905461, 38.3921141992022], [-110.800869971511, 38.3921653117324], [-110.800996279771, 38.3922168324657], [-110.801090721101, 38.3922324790696], [-110.80118235994, 38.3922285971064], [-110.801269695807, 38.3922035622387], [-110.801418633943, 38.3921132625657], [-110.801650406048, 38.3918837795444], [-110.801845138078, 38.3915124833625], [-110.802091250193, 38.3912442338849], [-110.802421040343, 38.390720197471], [-110.802716818723, 38.3903050421259], [-110.802828239484, 38.390064857563], [-110.80287788166477, 38.3899938]]]}}, {"type": "Feature", "properties": {"mukey": "55149", "musym": "23", "muname": "Chipeta silty clay, 2 to 15 percent slopes"}, "geometry": {"type": "Polygon", "coordinates": [[[-110.8100044, 38.3899938], [-110.80287788166477, 38.3899938], [-110.802828239484, 38.390064857563], [-110.802716818723, 38.3903050421259], [-110.802421040343, 38.390720197471], [-110.802091250193, 38.3912442338849], [-110.801845138078, 38.3915124833625], [-110.801650406048, 38.3918837795444], [-110.801418633943, 38.3921132625657], [-110.801269695807, 38.3922035622387], [-110.80118235994, 38.3922285971064], [-110.801090721101, 38.3922324790696], [-110.800996279771, 38.3922168324657], [-110.800869971511, 38.3921653117324], [-110.800799905461, 38.3921141992022], [-110.800755809103, 38.3920527143776], [-110.800687474491, 38.3916880170461], [-110.800662428323, 38.3911392599045], [-110.800702328654, 38.3909212929347], [-110.800750975282, 38.3907808353784], [-110.80091997523, 38.3904785857623], [-110.801191632243, 38.3900943546284], [-110.80124880304375, 38.3899938], [-110.79903380675046, 38.3899938], [-110.798933505978, 38.3902145036767], [-110.798089253924, 38.3913960096467], [-110.797837963524, 38.3918689758921], [-110.797320123892, 38.3926478762068], [-110.797217855797, 38.3928526265819], [-110.796916258928, 38.393584550882], [-110.796872708263, 38.3937270976277], [-110.796855533105, 38.3938727702479], [-110.79686292987, 38.3948986895841], [-110.796847075544, 38.3950451052208], [-110.796698746522, 38.395581451443], [-110.796287073632, 38.396238205726], [-110.796152449294, 38.3966636161219], [-110.796111243198, 38.3969557912007], [-110.79605207403, 38.3979075924629], [-110.796030793914, 38.3980158321412], [-110.795921694977, 38.3982963641198], [-110.795853254002, 38.3985466837911], [-110.795731372445, 38.3988621783224], [-110.795646078393, 38.3991849804165], [-110.795529121175, 38.3995016841328], [-110.795367360436, 38.3998454893037], [-110.795299561123, 38.4000587038524], [-110.795212521872, 38.4002290945509], [-110.795159787397, 38.4004070696886], [-110.795044828087, 38.4006070319311], [-110.794775486066, 38.4013079444592], [-110.79460254375, 38.4016485867103], [-110.794560125791, 38.4017909942737], [-110.79453544516, 38.4023773788839], [-110.794550986771, 38.4025976560534], [-110.794576279454, 38.4027047691397], [-110.794793142342, 38.40302889886], [-110.795326259368, 38.4035386857004], [-110.795476223758, 38.4037237149478], [-110.795654059644, 38.4040227695412], [-110.795695839971, 38.4041649120874], [-110.795709249019, 38.4043113945203], [-110.795676537258, 38.4045302924952], [-110.795572174672, 38.4048111521263], [-110.795348864059, 38.4057096837525], [-110.795198132448, 38.4064702812029], [-110.795074837144, 38.4068997335327], [-110.794926906362, 38.4073231386386], [-110.794759250915, 38.4080063126738], [-110.794729643461, 38.4081887102964], [-110.794664118767, 38.4084016477832], [-110.794584908393, 38.4088004727854], [-110.794444361338, 38.4092256914402], [-110.794392492978, 38.4096266230032], [-110.794435645231, 38.4100286892114], [-110.794474676123, 38.410209094974], [-110.794575371308, 38.4104913058518], [-110.794793363454, 38.4108956763946], [-110.795779387143, 38.4120956617304], [-110.796032470896, 38.4125689313417], [-110.796180461025, 38.4129167575588], [-110.796222819609, 38.4129811648029], [-110.796342897736, 38.4130939559368], [-110.796460588574, 38.4129361088977], [-110.796649831169, 38.4126007165901], [-110.797305739135, 38.4118900030103], [-110.797690073613, 38.4113458411767], [-110.797834007972, 38.4112019717165], [-110.798090354459, 38.4109893952275], [-110.798259566419, 38.4108144669235], [-110.798466069694, 38.4106675318836], [-110.798650474089, 38.4105557850779], [-110.798964872737, 38.4103984866627], [-110.799407338615, 38.4101976751331], [-110.799773846288, 38.4100376732397], [-110.800357098367, 38.4098098658259], [-110.801281390793, 38.4095615017783], [-110.801671525954, 38.4094428821484], [-110.801855224093, 38.4094197188621], [-110.802319802435, 38.4094311533466], [-110.802504897733, 38.4094493623507], [-110.802950081199, 38.4095552611119], [-110.803114629565, 38.4096220174369], [-110.803930416457, 38.410168868207], [-110.804397457223, 38.4105258854044], [-110.805224767589, 38.4112212486152], [-110.805576257768, 38.4115624655284], [-110.806395756116, 38.4121043394035], [-110.806978098257, 38.4124067340161], [-110.807575310477, 38.4126901648476], [-110.808181816839, 38.4128812527059], [-110.8082721422, 38.412893783731], [-110.808412135103, 38.4128858438849], [-110.808546500137, 38.4128560084127], [-110.808714739199, 38.4127913605146], [-110.808897991183, 38.4126797368322], [-110.809211648032, 38.4124096118935], [-110.809589438282, 38.4121958312856], [-110.809829357099, 38.4119716716678], [-110.809920421066, 38.4118441296279], [-110.809988593871, 38.4117076224264], [-110.8100044, 38.41166304980343], [-110.8100044, 38.3899938]]]}}, {"type": "Feature", "properties": {"mukey": "55151", "musym": "25", "muname": "Chipeta-Badland complex"}, "geometry": {"type": "Polygon", "coordinates": [[[-110.779378419259, 38.4139004515702], [-110.779103393844, 38.4139292097191], [-110.778964455565, 38.4155724383371], [-110.779013731482, 38.4157516053026], [-110.779052563001, 38.4160060871435], [-110.779100029193, 38.4161475443433], [-110.779238551291, 38.4163800320592], [-110.779454002296, 38.4166628151642], [-110.779512534038, 38.4168011275029], [-110.779549083331, 38.4170558855622], [-110.779548364172, 38.4173115401286], [-110.77958703443, 38.4176400930078], [-110.779547838082, 38.4181153321399], [-110.779487661792, 38.4182914854294], [-110.779384823658, 38.4184131974497], [-110.779139398624, 38.4185819599892], [-110.778903183387, 38.4186981330889], [-110.778718728427, 38.4188098503003], [-110.778441045238, 38.4190041869154], [-110.778315741054, 38.4191132632976], [-110.778239690731, 38.4192055447025], [-110.778207855912, 38.4192735131473], [-110.778176585688, 38.4194940310119], [-110.778206250396, 38.4195997132994], [-110.778305435531, 38.4197249809814], [-110.778824576012, 38.4200911371601], [-110.77906987666, 38.4203134180653], [-110.779151324552, 38.4204435402464], [-110.779169272776, 38.4205894716701], [-110.779097994886, 38.4208780443547], [-110.778684700918, 38.4215339961293], [-110.778658929384, 38.4218622167097], [-110.778667070472, 38.4219714057504], [-110.778734476832, 38.4222973856908], [-110.778848477977, 38.4225761883423], [-110.779270876632, 38.4231861354608], [-110.779470828876, 38.4234328670328], [-110.77958000763, 38.4235957574619], [-110.779647325815, 38.4237312013869], [-110.779656136928, 38.4238782382638], [-110.779628281001, 38.4240233892944], [-110.779531041633, 38.4243051688422], [-110.779427302256, 38.4248487203692], [-110.779363693007, 38.4250252881416], [-110.779306743784, 38.4251251927463], [-110.779216510291, 38.4252110622226], [-110.779140885477, 38.4252536235072], [-110.779054465972, 38.4252776230693], [-110.77877518641, 38.4253086960228], [-110.778596591529, 38.4253456509139], [-110.778344452346, 38.4254411697343], [-110.77815944229, 38.4255502418894], [-110.777968646401, 38.4257114881104], [-110.777850716159, 38.4258684360277], [-110.777787102229, 38.4260450029821], [-110.777786949761, 38.4261940267836], [-110.7778159492, 38.4262618612358], [-110.777871896972, 38.4263183086864], [-110.77815982378, 38.4265083459576], [-110.778766217276, 38.4268486024152], [-110.779055455397, 38.4269644282072], [-110.779538788765, 38.4270965099233], [-110.779990064376, 38.4272839426692], [-110.780809370187, 38.4278251051983], [-110.781069044086, 38.4279797232293], [-110.781327258961, 38.428190507571], [-110.78146767314, 38.4283803232214], [-110.781518417282, 38.4285954360261], [-110.781716625704, 38.429121425783], [-110.781800519376, 38.4294074829403], [-110.781982573274, 38.429704241457], [-110.782060544769, 38.4297941460407], [-110.782300962318, 38.4299691536576], [-110.782611564089, 38.4301266390619], [-110.782817261218, 38.4303266171957], [-110.782892230453, 38.4304593289915], [-110.783015795452, 38.4308886899394], [-110.783195638281, 38.4312263533878], [-110.783347734465, 38.431410239443], [-110.783749217108, 38.4318131997528], [-110.783868946767, 38.4319702970895], [-110.78388095535854, 38.4319974], [-110.79354248113702, 38.4319974], [-110.793809981411, 38.4319203327723], [-110.794489392462, 38.4316809340754], [-110.794839470626, 38.431583457452], [-110.795821742635, 38.4313597577015], [-110.796417090912, 38.4312768269763], [-110.796973129648, 38.4312365835239], [-110.797808967243, 38.4312482453916], [-110.798273901996, 38.431226254195], [-110.798501493595, 38.4311941742093], [-110.79877197923, 38.431137030512], [-110.798976846414, 38.4310508069669], [-110.799142683085, 38.4309223495135], [-110.799250180888, 38.4307603186279], [-110.798871645934, 38.4306201294871], [-110.798588386239, 38.4304936865818], [-110.798112587846, 38.4303472137796], [-110.797796612367, 38.4302843357574], [-110.797566147024, 38.4302562556036], [-110.797193954272, 38.4302507576613], [-110.79696259907, 38.4302643263858], [-110.796413674213, 38.4303452513621], [-110.795223412331, 38.4306627778408], [-110.793612528214, 38.431139589316], [-110.79332920892, 38.4312660064322], [-110.792604996045, 38.4315153381201], [-110.79230007578, 38.4316046318934], [-110.791981129005, 38.4316594995161], [-110.791656153372, 38.4316789727571], [-110.791472213959, 38.4316551825633], [-110.791304916427, 38.4315923511421], [-110.791132283968, 38.4314687557219], [-110.791009470718, 38.4313138431], [-110.790896083956, 38.4310728995952], [-110.790753409409, 38.430647660334], [-110.790644594295, 38.4304061634152], [-110.790175910598, 38.4297304982133], [-110.79001655978, 38.4294246780749], [-110.78998915893, 38.4293187220791], [-110.789982296057, 38.4291353243052], [-110.78990847332, 38.4288471467532], [-110.789775826568, 38.4285344818714], [-110.789704163724, 38.4284411083063], [-110.789284679725, 38.4280475692403], [-110.789145567586, 38.4278585056053], [-110.789075022253, 38.4276439839192], [-110.789060010623, 38.4275356252551], [-110.789130570181, 38.4268407439791], [-110.7891114831, 38.4267699049056], [-110.789053419287, 38.4266685636271], [-110.788911489316, 38.4265231890026], [-110.788534247052, 38.4262509671489], [-110.788390213374, 38.426106749857], [-110.788325945561, 38.4259691331281], [-110.788244291113, 38.4256078512523], [-110.788110045303, 38.4253333089574], [-110.788040851657, 38.4252405392645], [-110.787859996768, 38.4251224523337], [-110.787665411911, 38.4250231854887], [-110.786601196214, 38.4246534900836], [-110.786348264622, 38.4244917462029], [-110.786256092635, 38.4243665368821], [-110.786153618223, 38.4241215622789], [-110.786133370529, 38.4239759083886], [-110.786181820887, 38.4237939450318], [-110.786266691113, 38.4237105244955], [-110.786437438601, 38.4236465119312], [-110.786806528289, 38.4236081630467], [-110.7870857085, 38.4235996596282], [-110.787317246349, 38.4236158865639], [-110.787715612768, 38.423715774569], [-110.788233704269, 38.4238806406446], [-110.788720348713, 38.4240059635497], [-110.789085231097, 38.4240620374724], [-110.789965472273, 38.4241198431287], [-110.790193071442, 38.4241627310918], [-110.790355110115, 38.4242343262296], [-110.790456066884, 38.4243106065008], [-110.790535543863, 38.4244021302037], [-110.790570445385, 38.4244701515737], [-110.79059267122, 38.4245794430665], [-110.790567121388, 38.4247243199811], [-110.79037827359, 38.425177048504], [-110.790363542132, 38.4253233249015], [-110.790386910285, 38.4254324781383], [-110.790446721974, 38.4255308980572], [-110.790633475614, 38.4256952279816], [-110.79081512026, 38.4258114097779], [-110.790980477934, 38.4258762812302], [-110.791163193451, 38.4259056370511], [-110.791350029004, 38.4259092075057], [-110.792649941049, 38.4258376205919], [-110.793929253612, 38.4256475003211], [-110.7942976323, 38.4256056034782], [-110.794436800578, 38.425605007197], [-110.794806889715, 38.4256405672333], [-110.795229922953, 38.4257925349257], [-110.795674590692, 38.4259012424132], [-110.796310911068, 38.4260084126272], [-110.796772418674, 38.4260617947326], [-110.797083493438, 38.4261352006175], [-110.797683501002, 38.4261961889499], [-110.797869440952, 38.4261953426524], [-110.798103691959, 38.4261615518609], [-110.79819205926, 38.4261643951832], [-110.798311928699, 38.4262185115521], [-110.798552731992, 38.4263952502029], [-110.798813187113, 38.4264729771218], [-110.799182545885, 38.4265221596841], [-110.799311247273, 38.4264758650046], [-110.799374494397, 38.4264185336738], [-110.799395957171, 38.4263111748641], [-110.799353155175, 38.4262043757088], [-110.798630184327, 38.4255333482863], [-110.79848419876, 38.4253451253966], [-110.79842772977, 38.4252056639995], [-110.7984326283, 38.4250226457642], [-110.798475661327, 38.4247681795509], [-110.798517441387, 38.4246628755164], [-110.798592575163, 38.4245661747467], [-110.798661758939, 38.4245207678757], [-110.798795969922, 38.4244900616786], [-110.798983114155, 38.4244836487347], [-110.799271103638, 38.4245011437063], [-110.799313795005, 38.4244923600111], [-110.799378408927, 38.4244475062344], [-110.799428429437, 38.4243366880401], [-110.799426288687, 38.4242628935607], [-110.799397694995, 38.4241914003395], [-110.799226805065, 38.4240188385053], [-110.799114260313, 38.4238166317002], [-110.798938900279, 38.4235588171613], [-110.798803272635, 38.4234099795887], [-110.79862240493, 38.4232919084567], [-110.79848939729, 38.4232709926227], [-110.798253136417, 38.4232833544963], [-110.797843090377, 38.4233447612013], [-110.797335428215, 38.4233981215536], [-110.796126380056, 38.4233810936505], [-110.795987620906, 38.4233951891549], [-110.795897961434, 38.4234204969404], [-110.795788416706, 38.4234861426283], [-110.795545785175, 38.4238009025171], [-110.795425426171, 38.4239112056874], [-110.795032525026, 38.4241086986002], [-110.794859811763, 38.4241630279341], [-110.794676725029, 38.424195132879], [-110.794540223242, 38.4241800543682], [-110.794004155232, 38.4240535130938], [-110.793497214704, 38.4240011082204], [-110.792276762196, 38.4237668758966], [-110.7917933154, 38.4236285361822], [-110.791686154348, 38.4235620389448], [-110.791609745345, 38.4234683383114], [-110.791540904474, 38.4233312764636], [-110.791520783016, 38.4232208271534], [-110.791541718607, 38.4231108255604], [-110.791593545627, 38.4230548812423], [-110.791800033134, 38.4229594408957], [-110.792106598145, 38.4228726541798], [-110.7924312886, 38.4228577249592], [-110.792570897978, 38.4228363057965], [-110.792679302295, 38.422770801282], [-110.792741584541, 38.4226684361643], [-110.792745450125, 38.422555082471], [-110.792714153708, 38.4224875281554], [-110.792271823815, 38.4221599835124], [-110.792168938553, 38.4220396872216], [-110.792073687898, 38.4218706030513], [-110.792036006139, 38.4217658922578], [-110.792028147933, 38.4215085616506], [-110.792070761466, 38.4213670364105], [-110.792310865701, 38.4210110482987], [-110.792784497584, 38.4202149761305], [-110.792889100775, 38.4200099529575], [-110.792920247148, 38.419904132883], [-110.792964889871, 38.4194273165627], [-110.792927854463, 38.4192855012636], [-110.792750063237, 38.4190270731388], [-110.792687898716, 38.4188883006582], [-110.792660290178, 38.4187065112421], [-110.792684510625, 38.4182673883343], [-110.792672426566, 38.4181216486907], [-110.792627038159, 38.4179790387252], [-110.792497250046, 38.4177436968303], [-110.79244355013, 38.4175659698925], [-110.79241331358, 38.4172734193423], [-110.792456347696, 38.416541225156], [-110.79244294291, 38.4163947424143], [-110.792404409338, 38.4162513024975], [-110.792219028997, 38.4159152253111], [-110.79196485054, 38.4156091526017], [-110.791711992482, 38.4152577655545], [-110.791327826337, 38.414887960258], [-110.791221641456, 38.414820442921], [-110.791089031101, 38.4147841206954], [-110.790858750799, 38.4147451747976], [-110.790724150451, 38.4147623750185], [-110.790522432649, 38.4148581417916], [-110.789770476678, 38.4153501507878], [-110.789601923607, 38.4154075834396], [-110.789323649115, 38.4154376606482], [-110.789138833371, 38.4154266211971], [-110.788825102137, 38.4153571356051], [-110.788659411699, 38.4152904984721], [-110.788184984212, 38.4150580432001], [-110.787802094715, 38.4149246810584], [-110.787623394247, 38.4148803884495], [-110.787485701912, 38.4148708669742], [-110.787300664196, 38.4148932656969], [-110.787126107997, 38.4149441969084], [-110.786919771319, 38.4150287762557], [-110.786617510592, 38.4151999214611], [-110.786518473715, 38.4152769305656], [-110.786437152149, 38.4153662445061], [-110.786290611217, 38.4155953015458], [-110.786247026826, 38.4157378444471], [-110.786229825405, 38.4158835154974], [-110.78626133614, 38.416101858094], [-110.786405300717, 38.4163725140014], [-110.786525010856, 38.4165296088076], [-110.786795228261, 38.416782273646], [-110.786868018249, 38.4168755106681], [-110.786890527311, 38.4169459353274], [-110.786894962336, 38.4170944061328], [-110.786876305983, 38.4172041304328], [-110.786830549181, 38.4173072011449], [-110.786762440002, 38.4174039465963], [-110.786647722344, 38.4175189765051], [-110.786507538856, 38.4176181239934], [-110.786426707606, 38.417652290634], [-110.785975293004, 38.4177403413604], [-110.785511089446, 38.4177712382954], [-110.785324633234, 38.417769421765], [-110.785146643965, 38.4177286511284], [-110.78494883479, 38.4176306760953], [-110.784828945915, 38.4175187552562], [-110.784748275143, 38.4173867357989], [-110.784707471602, 38.417243569956], [-110.784720891319, 38.4170965510564], [-110.784866815962, 38.4167492688042], [-110.785019187721, 38.4164797733495], [-110.785030030173, 38.416371898413], [-110.784959886876, 38.4162340897161], [-110.784835431338, 38.4161227218442], [-110.784753661929, 38.4160946889723], [-110.784379706138, 38.4160686038235], [-110.78423802643, 38.416027953519], [-110.784164634247, 38.4159835542403], [-110.784146024839, 38.4159207851469], [-110.784175098187, 38.4158450208635], [-110.784220991008, 38.4157771548451], [-110.784335888891, 38.4156630085844], [-110.784390899189, 38.415519084001], [-110.784346131826, 38.4154197454519], [-110.784177468861, 38.4152866351428], [-110.783978278822, 38.4151933419756], [-110.783496583819, 38.4150574756163], [-110.782770546853, 38.4149285991288], [-110.781751846925, 38.4146725796194], [-110.781252059735, 38.4145858541463], [-110.780985035148, 38.4145215352698], [-110.780613607493, 38.4143696075753], [-110.780037742173, 38.4140581883645], [-110.779793075503, 38.4139541364768], [-110.779378419259, 38.4139004515702]]]}}, {"type": "Feature", "properties": {"mukey": "55162", "musym": "35", "muname": "Farb-Farb,very shallow-Rock outcrop complex"}, "geometry": {"type": "Polygon", "coordinates": [[[-110.78369647880905, 38.3899938], [-110.77448083391666, 38.3899938], [-110.77422267358, 38.3901234760163], [-110.773966330853, 38.3903360029413], [-110.773885021654, 38.3904253086542], [-110.773689068149, 38.3907163194877], [-110.773400333912, 38.3913743582601], [-110.773292896486, 38.3915769970733], [-110.773179152546, 38.3917370518925], [-110.772672599948, 38.392307651772], [-110.7725054656, 38.3925274442583], [-110.77233460464, 38.3929075279817], [-110.772295096568, 38.3930874996351], [-110.772238956083, 38.3938194437581], [-110.772262488476, 38.3949553500379], [-110.772124951577, 38.3958280821383], [-110.771927906408, 38.3964307734556], [-110.771781296893, 38.396740192586], [-110.771647181823, 38.3969325092616], [-110.77158850379, 38.3971102834932], [-110.771375944164, 38.3975559118874], [-110.771226928894, 38.3977843459272], [-110.771006752284, 38.3980195799134], [-110.770254175689, 38.3986695841951], [-110.769977867243, 38.3988646451375], [-110.769533199014, 38.399239001641], [-110.769008656294, 38.3998885113652], [-110.768864554805, 38.4001181529872], [-110.768761054848, 38.4003230177622], [-110.768716128565, 38.4005397638384], [-110.768772050754, 38.4008671303088], [-110.768853695006, 38.4010387711007], [-110.768922236292, 38.4011343339627], [-110.769004550603, 38.4012228130859], [-110.769543085696, 38.401679656193], [-110.769695602442, 38.4017623550841], [-110.769912142079, 38.4018318935281], [-110.770093042001, 38.4018642010646], [-110.770278536465, 38.4018787947528], [-110.770929630448, 38.4019102295458], [-110.771066427591, 38.4018982013125], [-110.771379039518, 38.4018242729849], [-110.771675535195, 38.4017170737798], [-110.771788674042, 38.401651916558], [-110.771872998137, 38.4015658616626], [-110.772048449754, 38.401185226191], [-110.772122205137, 38.4010932248112], [-110.772218238085, 38.4010129778612], [-110.772392337523, 38.4008907788783], [-110.772511832182, 38.4008338825915], [-110.772728934929, 38.4007678895957], [-110.773131043582, 38.4006795190538], [-110.77350223987, 38.4005253507822], [-110.773727368431, 38.4003951710104], [-110.773918644732, 38.4002365754826], [-110.77450788216, 38.3995774078287], [-110.774628061267, 38.3994201867197], [-110.774699227593, 38.3992463180318], [-110.774726597276, 38.399064201477], [-110.774691702249, 38.3988462702712], [-110.774613581146, 38.3985595173354], [-110.774600641317, 38.3984093688128], [-110.774644835507, 38.3983101045125], [-110.774858099188, 38.3981100152387], [-110.774908657989, 38.3979729554075], [-110.774915608796, 38.3974943962532], [-110.774879403347, 38.3973506744878], [-110.774818432964, 38.3972117547644], [-110.774745498824, 38.3971176291665], [-110.774646342785, 38.3970384154554], [-110.774568339525, 38.3969999896044], [-110.774435590657, 38.3969627680232], [-110.773320606798, 38.3969052926857], [-110.773143995748, 38.3968652479564], [-110.772984812538, 38.3967842635154], [-110.772895220582, 38.3967002795847], [-110.772857289408, 38.396588373454], [-110.77290070083, 38.3964910107222], [-110.772978830653, 38.3964436318017], [-110.77311031658, 38.3963997324332], [-110.773522090496, 38.3963417955253], [-110.774404389236, 38.3963596872397], [-110.775147292721, 38.3963249009656], [-110.775561749474, 38.3962801783275], [-110.775875764884, 38.3962132898155], [-110.776343213412, 38.3960492705463], [-110.776502442672, 38.3959749187432], [-110.776648777079, 38.3958831625656], [-110.777072426692, 38.3955438268836], [-110.777185625055, 38.3954271811902], [-110.777313297208, 38.3952320237133], [-110.777512474839, 38.394743748997], [-110.777643928686, 38.3945499394622], [-110.777778622958, 38.3944008907745], [-110.777910848354, 38.3942972938033], [-110.778096563825, 38.3941863209536], [-110.778797735716, 38.3939000890962], [-110.779014371936, 38.3937627961292], [-110.779311669804, 38.3934811844398], [-110.779623683372, 38.3931165148846], [-110.779851564082, 38.3928848432898], [-110.780051883235, 38.3926384454037], [-110.780389289093, 38.3921569133941], [-110.780807258177, 38.3918128292266], [-110.781235652006, 38.391531599263], [-110.781619595121, 38.3913252840919], [-110.781876045132, 38.3912400588149], [-110.782542397155, 38.3910763173795], [-110.783232794485, 38.3908581860974], [-110.783518975085, 38.3907350411959], [-110.783621944714, 38.3906602639466], [-110.783713385938, 38.3905345040018], [-110.783761176785, 38.3902054185071], [-110.783713048261, 38.3900261150852], [-110.78369647880905, 38.3899938]]]}}, {"type": "Feature", "properties": {"mukey": "55165", "musym": "38", "muname": "Green River-Myton families complex"}, "geometry": {"type": "Polygon", "coordinates": [[[-110.766923895683, 38.4063923799814], [-110.76656503842, 38.4064691755658], [-110.766122641156, 38.4065840633046], [-110.765713144667, 38.4067572822781], [-110.765579736622, 38.4067860515374], [-110.765347059826, 38.4068042441104], [-110.765021320279, 38.4068020788356], [-110.764613058937, 38.4067277104468], [-110.764475206017, 38.4067172818221], [-110.764, 38.406770496295714], [-110.764, 38.40905298660997], [-110.764206018756, 38.409029099211], [-110.764478059347, 38.408979963587], [-110.764784061564, 38.4088906005874], [-110.765056665097, 38.4087519941571], [-110.765183856887, 38.4087041103359], [-110.765595458504, 38.4086507451167], [-110.765858097735, 38.4085783603586], [-110.766216812849, 38.4084085716284], [-110.766357721801, 38.4083129728896], [-110.766607365229, 38.4080958637631], [-110.766844179394, 38.4077809697255], [-110.766923903965, 38.4076087833132], [-110.767032580902, 38.4074466423931], [-110.767099687311, 38.4073102970073], [-110.767288693676, 38.4066273195083], [-110.767285801498, 38.4065554253553], [-110.767253461863, 38.4064825760431], [-110.767197000649, 38.4064234794913], [-110.767116996283, 38.4063925144984], [-110.766923895683, 38.4063923799814]]]}}, {"type": "Feature", "properties": {"mukey": "55166", "musym": "39", "muname": "Hanksville-Chipeta complex"}, "geometry": {"type": "Polygon", "coordinates": [[[-110.801855224093, 38.4094197188621], [-110.801671525954, 38.4094428821484], [-110.801281390793, 38.4095615017783], [-110.800357098367, 38.4098098658259], [-110.799773846288, 38.4100376732397], [-110.799407338615, 38.4101976751331], [-110.798964872737, 38.4103984866627], [-110.798650474089, 38.4105557850779], [-110.798466069694, 38.4106675318836], [-110.798259566419, 38.4108144669235], [-110.798090354459, 38.4109893952275], [-110.797834007972, 38.4112019717165], [-110.797690073613, 38.4113458411767], [-110.797305739135, 38.4118900030103], [-110.796649831169, 38.4126007165901], [-110.796460588574, 38.4129361088977], [-110.796342897736, 38.4130939559368], [-110.79649595216, 38.4132768061066], [-110.797206331605, 38.4139556761132], [-110.797496139726, 38.4142872260424], [-110.79771410479, 38.4144784680917], [-110.798154858017, 38.4147465774115], [-110.79902438324, 38.4150973033627], [-110.799476878715, 38.4153540524077], [-110.799851942539, 38.4156788824252], [-110.799965185819, 38.4158385571833], [-110.800031930332, 38.4159767724765], [-110.800029284762, 38.4160845614366], [-110.799957593918, 38.4163361797843], [-110.799792315712, 38.4166397754683], [-110.799453244416, 38.4171188545877], [-110.799365149483, 38.4172035807162], [-110.79925933621, 38.4172760037135], [-110.798982263034, 38.4174098127077], [-110.798671292695, 38.4174863168276], [-110.798161021393, 38.4174921376972], [-110.797602457431, 38.4174676824474], [-110.797463171836, 38.4174791354972], [-110.797381628624, 38.417509783835], [-110.797240496738, 38.4176099632688], [-110.797153115871, 38.4176982133078], [-110.79712226217, 38.4177651669148], [-110.797123928653, 38.4179862225464], [-110.797174771029, 38.4184605090985], [-110.797222771827, 38.418638925744], [-110.797359536627, 38.418989015416], [-110.797548089667, 38.4193635373096], [-110.797739924779, 38.4196563832559], [-110.797892033436, 38.4198402513947], [-110.798043612037, 38.4200675321119], [-110.798239417851, 38.420517938114], [-110.798439932715, 38.4208476622189], [-110.798569239172, 38.4209999745185], [-110.799214605721, 38.4215774448183], [-110.799401376932, 38.4217878183437], [-110.799565849418, 38.4220496601103], [-110.799711039404, 38.4221937259674], [-110.799841909821, 38.4222961778103], [-110.800029338353, 38.4224062275337], [-110.800666679891, 38.4227083175892], [-110.801524010263, 38.4231481166153], [-110.80190443759, 38.423286258097], [-110.802039306045, 38.4233105573089], [-110.80241287037, 38.4232941958175], [-110.802532737002, 38.4232390331627], [-110.802620656143, 38.4231534234144], [-110.802684028381, 38.4229759622645], [-110.80272668365, 38.4225011819824], [-110.802766774292, 38.4222840958898], [-110.802821149234, 38.4221429456007], [-110.802936811658, 38.4220268808678], [-110.803016743117, 38.4219882965706], [-110.803105010728, 38.4219676672453], [-110.803246635993, 38.4219676655562], [-110.803431385912, 38.422001271593], [-110.803562815038, 38.4219799274935], [-110.803715596475, 38.4218909725999], [-110.803958387718, 38.4216691917325], [-110.804266400875, 38.4214458284142], [-110.804414611238, 38.4213574263332], [-110.804538976428, 38.4213071346364], [-110.804808278612, 38.4212501160958], [-110.805085360701, 38.421225568931], [-110.805321171123, 38.4212340189885], [-110.805448268234, 38.4212718994007], [-110.80583061331, 38.4216437001834], [-110.805894652922, 38.421739796147], [-110.805975385036, 38.4220271335405], [-110.806003536747, 38.4223551612805], [-110.805855805903, 38.4230783897564], [-110.805748812457, 38.423357772033], [-110.805656662341, 38.4235260796673], [-110.805304033057, 38.4240420396965], [-110.805101416759, 38.4242426984369], [-110.805030979715, 38.4244544323461], [-110.804904908911, 38.4246918729891], [-110.804867707326, 38.424796625487], [-110.804867753031, 38.4249808530001], [-110.804918701838, 38.4251218849384], [-110.805002049429, 38.4252093201506], [-110.805231196908, 38.4253919752549], [-110.805391244084, 38.4253156849975], [-110.805481201821, 38.4252343415876], [-110.805657911069, 38.4249754108751], [-110.805838530301, 38.42459769921], [-110.806002736996, 38.4243348641816], [-110.806086508739, 38.4242461418279], [-110.806238083769, 38.4241627488464], [-110.806556759851, 38.4240952283828], [-110.80663512476, 38.4240604440609], [-110.806753427665, 38.4239458615837], [-110.806900179196, 38.4237582918825], [-110.807050908002, 38.4236190076241], [-110.807357598187, 38.4233948936718], [-110.807918370992, 38.4230677338914], [-110.808353004123, 38.4226384564165], [-110.808479577685, 38.4224840355062], [-110.808566791974, 38.4223145168829], [-110.808715681737, 38.4216660992836], [-110.808884236535, 38.4212464933897], [-110.809233918705, 38.4208139617507], [-110.809416070355, 38.4205588785367], [-110.809589974738, 38.420435745673], [-110.809674225018, 38.4204011484223], [-110.809762782282, 38.4203877036377], [-110.809948135068, 38.4204185173639], [-110.8100044, 38.42044876842037], [-110.8100044, 38.41166304980343], [-110.809988593871, 38.4117076224264], [-110.809920421066, 38.4118441296279], [-110.809829357099, 38.4119716716678], [-110.809589438282, 38.4121958312856], [-110.809211648032, 38.4124096118935], [-110.808897991183, 38.4126797368322], [-110.808714739199, 38.4127913605146], [-110.808546500137, 38.4128560084127], [-110.808412135103, 38.4128858438849], [-110.8082721422, 38.412893783731], [-110.808181816839, 38.4128812527059], [-110.807575310477, 38.4126901648476], [-110.806978098257, 38.4124067340161], [-110.806395756116, 38.4121043394035], [-110.805576257768, 38.4115624655284], [-110.805224767589, 38.4112212486152], [-110.804397457223, 38.4105258854044], [-110.803930416457, 38.410168868207], [-110.803114629565, 38.4096220174369], [-110.802950081199, 38.4095552611119], [-110.802504897733, 38.4094493623507], [-110.802319802435, 38.4094311533466], [-110.801855224093, 38.4094197188621]]]}}, {"type": "Feature", "properties": {"mukey": "55112", "musym": "101", "muname": "Sheppard-Leebench complex"}, "geometry": {"type": "Polygon", "coordinates": [[[-110.766844179394, 38.4077809697255], [-110.766607365229, 38.4080958637631], [-110.766357721801, 38.4083129728896], [-110.766216812849, 38.4084085716284], [-110.765858097735, 38.4085783603586], [-110.765595458504, 38.4086507451167], [-110.765183856887, 38.4087041103359], [-110.765056665097, 38.4087519941571], [-110.764784061564, 38.4088906005874], [-110.764478059347, 38.408979963587], [-110.764206018756, 38.409029099211], [-110.764, 38.40905298660997], [-110.764, 38.42913342657224], [-110.764209926865, 38.4290210895597], [-110.764338406923, 38.4289793765826], [-110.76461248978, 38.4289399363158], [-110.764844672668, 38.4289362620291], [-110.765168845166, 38.4289648172917], [-110.7656133086, 38.4290727518705], [-110.766246531715, 38.4293032638806], [-110.76677463448, 38.4294426270237], [-110.767312955496, 38.4296611243808], [-110.767875686514, 38.4299191127782], [-110.767985478183, 38.4299871173849], [-110.768113606664, 38.4300935428322], [-110.768251290344, 38.430241256583], [-110.768343796941, 38.4303682421907], [-110.768428420629, 38.4305774549326], [-110.768492495194, 38.4310889635882], [-110.768550713078, 38.4311911959628], [-110.768652083263, 38.4312638303443], [-110.768741750462, 38.4312845992695], [-110.76888464669, 38.4312908069944], [-110.769765143229, 38.4312286289503], [-110.769950711921, 38.4312432231223], [-110.770084552499, 38.4312740034129], [-110.770290154905, 38.4313584195718], [-110.770756923285, 38.431599099863], [-110.771158607845, 38.4317844328256], [-110.771496672254, 38.4319792618245], [-110.77153595704237, 38.4319974], [-110.78388095535854, 38.4319974], [-110.783868946767, 38.4319702970895], [-110.783749217108, 38.4318131997528], [-110.783347734465, 38.431410239443], [-110.783195638281, 38.4312263533878], [-110.783015795452, 38.4308886899394], [-110.782892230453, 38.4304593289915], [-110.782817261218, 38.4303266171957], [-110.782611564089, 38.4301266390619], [-110.782300962318, 38.4299691536576], [-110.782060544769, 38.4297941460407], [-110.781982573274, 38.429704241457], [-110.781800519376, 38.4294074829403], [-110.781716625704, 38.429121425783], [-110.781518417282, 38.4285954360261], [-110.78146767314, 38.4283803232214], [-110.781327258961, 38.428190507571], [-110.781069044086, 38.4279797232293], [-110.780809370187, 38.4278251051983], [-110.779990064376, 38.4272839426692], [-110.779538788765, 38.4270965099233], [-110.779055455397, 38.4269644282072], [-110.778766217276, 38.4268486024152], [-110.77815982378, 38.4265083459576], [-110.777871896972, 38.4263183086864], [-110.7778159492, 38.4262618612358], [-110.777786949761, 38.4261940267836], [-110.777787102229, 38.4260450029821], [-110.777850716159, 38.4258684360277], [-110.777968646401, 38.4257114881104], [-110.77815944229, 38.4255502418894], [-110.778344452346, 38.4254411697343], [-110.778596591529, 38.4253456509139], [-110.77877518641, 38.4253086960228], [-110.779054465972, 38.4252776230693], [-110.779140885477, 38.4252536235072], [-110.779216510291, 38.4252110622226], [-110.779306743784, 38.4251251927463], [-110.779363693007, 38.4250252881416], [-110.779427302256, 38.4248487203692], [-110.779531041633, 38.4243051688422], [-110.779628281001, 38.4240233892944], [-110.779656136928, 38.4238782382638], [-110.779647325815, 38.4237312013869], [-110.77958000763, 38.4235957574619], [-110.779470828876, 38.4234328670328], [-110.779270876632, 38.4231861354608], [-110.778848477977, 38.4225761883423], [-110.778734476832, 38.4222973856908], [-110.778667070472, 38.4219714057504], [-110.778658929384, 38.4218622167097], [-110.778684700918, 38.4215339961293], [-110.779097994886, 38.4208780443547], [-110.779169272776, 38.4205894716701], [-110.779151324552, 38.4204435402464], [-110.77906987666, 38.4203134180653], [-110.778824576012, 38.4200911371601], [-110.778305435531, 38.4197249809814], [-110.778206250396, 38.4195997132994], [-110.778176585688, 38.4194940310119], [-110.778207855912, 38.4192735131473], [-110.778239690731, 38.4192055447025], [-110.778315741054, 38.4191132632976], [-110.778441045238, 38.4190041869154], [-110.778718728427, 38.4188098503003], [-110.778903183387, 38.4186981330889], [-110.779139398624, 38.4185819599892], [-110.779384823658, 38.4184131974497], [-110.779487661792, 38.4182914854294], [-110.779547838082, 38.4181153321399], [-110.77958703443, 38.4176400930078], [-110.779548364172, 38.4173115401286], [-110.779549083331, 38.4170558855622], [-110.779512534038, 38.4168011275029], [-110.779454002296, 38.4166628151642], [-110.779238551291, 38.4163800320592], [-110.779100029193, 38.4161475443433], [-110.779052563001, 38.4160060871435], [-110.779013731482, 38.4157516053026], [-110.778964455565, 38.4155724383371], [-110.779103393844, 38.4139292097191], [-110.778779504991, 38.4139133070924], [-110.7782707086, 38.413954992488], [-110.77795422375, 38.414015855441], [-110.777699547989, 38.4141044599291], [-110.777002154953, 38.4144678677023], [-110.776313046032, 38.4149585032988], [-110.775929322336, 38.4151665645955], [-110.775527660723, 38.4153497022348], [-110.775107570617, 38.4156380159055], [-110.774795919921, 38.4157976213121], [-110.77451559519, 38.4159904625717], [-110.774354999179, 38.4160640685017], [-110.774134741111, 38.4161205070011], [-110.773627111725, 38.4161737696429], [-110.773488029346, 38.4161689158293], [-110.773305524181, 38.4161404151918], [-110.773168214921, 38.4161154793692], [-110.773084770698, 38.4160849326563], [-110.772947453254, 38.4159850439689], [-110.772846355842, 38.4158618110371], [-110.77280185113, 38.4157579231196], [-110.772757151203, 38.4155032485378], [-110.77275947883, 38.4153936973482], [-110.772789808561, 38.4152491529958], [-110.77296642201, 38.4147934256025], [-110.773115705087, 38.4144854917652], [-110.773371076919, 38.4140545550132], [-110.773639180931, 38.4136690365284], [-110.773941096848, 38.4133001982188], [-110.774254429858, 38.4128089682321], [-110.774603133826, 38.4123766729997], [-110.774658758346, 38.4122760272801], [-110.774721046656, 38.4120987186263], [-110.77477254784, 38.4117357814719], [-110.774758802817, 38.4111495527915], [-110.77470285622, 38.4108971417586], [-110.774590994308, 38.4106171774975], [-110.774506915424, 38.4105316226398], [-110.774060886355, 38.4102080907136], [-110.773709005164, 38.4100312060528], [-110.773274055183, 38.4099004892431], [-110.772594352997, 38.4097804062292], [-110.772373440211, 38.4097240410006], [-110.772056544225, 38.4096675430424], [-110.771890702902, 38.4096000019307], [-110.771439123729, 38.409341250566], [-110.771223097385, 38.4092743590558], [-110.770991719001, 38.409264409855], [-110.770439701382, 38.4093293537073], [-110.770089697028, 38.4094267610335], [-110.76981427932, 38.4095630105636], [-110.769645655481, 38.4096258424917], [-110.769464341477, 38.4096549895301], [-110.768999892751, 38.4096786348287], [-110.768861001939, 38.4096746572037], [-110.768493606288, 38.4096287712746], [-110.767707275888, 38.4094041576904], [-110.767501559077, 38.4093188557624], [-110.767308970179, 38.4092175177322], [-110.767126867113, 38.4090986569781], [-110.767055788858, 38.4090079144502], [-110.767032762204, 38.4088598892689], [-110.767074575986, 38.408679643234], [-110.767155499508, 38.4085479489159], [-110.767387251826, 38.4083176491011], [-110.767431888201, 38.4082147236706], [-110.767433990835, 38.408138613463], [-110.767413608517, 38.40806702766], [-110.767367246282, 38.4080058070653], [-110.767188820085, 38.4078819870014], [-110.767027376912, 38.4078130056143], [-110.766844179394, 38.4077809697255]]]}}, {"type": "Feature", "properties": {"mukey": "55156", "musym": "3", "muname": "Badland-Rock outcrop complex"}, "geometry": {"type": "Polygon", "coordinates": [[[-110.79903380675046, 38.3899938], [-110.78369647880905, 38.3899938], [-110.783713048261, 38.3900261150852], [-110.783761176785, 38.3902054185071], [-110.783713385938, 38.3905345040018], [-110.783621944714, 38.3906602639466], [-110.783518975085, 38.3907350411959], [-110.783232794485, 38.3908581860974], [-110.782542397155, 38.3910763173795], [-110.781876045132, 38.3912400588149], [-110.781619595121, 38.3913252840919], [-110.781235652006, 38.391531599263], [-110.780807258177, 38.3918128292266], [-110.780389289093, 38.3921569133941], [-110.780051883235, 38.3926384454037], [-110.779851564082, 38.3928848432898], [-110.779623683372, 38.3931165148846], [-110.779311669804, 38.3934811844398], [-110.779014371936, 38.3937627961292], [-110.778797735716, 38.3939000890962], [-110.778096563825, 38.3941863209536], [-110.777910848354, 38.3942972938033], [-110.777778622958, 38.3944008907745], [-110.777643928686, 38.3945499394622], [-110.777512474839, 38.394743748997], [-110.777313297208, 38.3952320237133], [-110.777185625055, 38.3954271811902], [-110.777072426692, 38.3955438268836], [-110.776648777079, 38.3958831625656], [-110.776502442672, 38.3959749187432], [-110.776343213412, 38.3960492705463], [-110.775875764884, 38.3962132898155], [-110.775561749474, 38.3962801783275], [-110.775147292721, 38.3963249009656], [-110.774404389236, 38.3963596872397], [-110.773522090496, 38.3963417955253], [-110.77311031658, 38.3963997324332], [-110.772978830653, 38.3964436318017], [-110.77290070083, 38.3964910107222], [-110.772857289408, 38.396588373454], [-110.772895220582, 38.3967002795847], [-110.772984812538, 38.3967842635154], [-110.773143995748, 38.3968652479564], [-110.773320606798, 38.3969052926857], [-110.774435590657, 38.3969627680232], [-110.774568339525, 38.3969999896044], [-110.774646342785, 38.3970384154554], [-110.774745498824, 38.3971176291665], [-110.774818432964, 38.3972117547644], [-110.774879403347, 38.3973506744878], [-110.774915608796, 38.3974943962532], [-110.774908657989, 38.3979729554075], [-110.774858099188, 38.3981100152387], [-110.774644835507, 38.3983101045125], [-110.774600641317, 38.3984093688128], [-110.774613581146, 38.3985595173354], [-110.774691702249, 38.3988462702712], [-110.774726597276, 38.399064201477], [-110.774699227593, 38.3992463180318], [-110.774628061267, 38.3994201867197], [-110.77450788216, 38.3995774078287], [-110.773918644732, 38.4002365754826], [-110.773727368431, 38.4003951710104], [-110.77350223987, 38.4005253507822], [-110.773131043582, 38.4006795190538], [-110.772728934929, 38.4007678895957], [-110.772511832182, 38.4008338825915], [-110.772392337523, 38.4008907788783], [-110.772218238085, 38.4010129778612], [-110.772122205137, 38.4010932248112], [-110.772048449754, 38.401185226191], [-110.771872998137, 38.4015658616626], [-110.771788674042, 38.401651916558], [-110.771675535195, 38.4017170737798], [-110.771379039518, 38.4018242729849], [-110.771066427591, 38.4018982013125], [-110.770929630448, 38.4019102295458], [-110.770278536465, 38.4018787947528], [-110.770093042001, 38.4018642010646], [-110.769912142079, 38.4018318935281], [-110.769695602442, 38.4017623550841], [-110.769543085696, 38.401679656193], [-110.769004550603, 38.4012228130859], [-110.768922236292, 38.4011343339627], [-110.768853695006, 38.4010387711007], [-110.768772050754, 38.4008671303088], [-110.768716128565, 38.4005397638384], [-110.768761054848, 38.4003230177622], [-110.768864554805, 38.4001181529872], [-110.769008656294, 38.3998885113652], [-110.769533199014, 38.399239001641], [-110.769977867243, 38.3988646451375], [-110.770254175689, 38.3986695841951], [-110.771006752284, 38.3980195799134], [-110.771226928894, 38.3977843459272], [-110.771375944164, 38.3975559118874], [-110.77158850379, 38.3971102834932], [-110.771647181823, 38.3969325092616], [-110.771781296893, 38.396740192586], [-110.771927906408, 38.3964307734556], [-110.772124951577, 38.3958280821383], [-110.772262488476, 38.3949553500379], [-110.772238956083, 38.3938194437581], [-110.772295096568, 38.3930874996351], [-110.77233460464, 38.3929075279817], [-110.7725054656, 38.3925274442583], [-110.772672599948, 38.392307651772], [-110.773179152546, 38.3917370518925], [-110.773292896486, 38.3915769970733], [-110.773400333912, 38.3913743582601], [-110.773689068149, 38.3907163194877], [-110.773885021654, 38.3904253086542], [-110.773966330853, 38.3903360029413], [-110.77422267358, 38.3901234760163], [-110.77448083391666, 38.3899938], [-110.764, 38.3899938], [-110.764, 38.406770496295714], [-110.764475206017, 38.4067172818221], [-110.764613058937, 38.4067277104468], [-110.765021320279, 38.4068020788356], [-110.765347059826, 38.4068042441104], [-110.765579736622, 38.4067860515374], [-110.765713144667, 38.4067572822781], [-110.766122641156, 38.4065840633046], [-110.76656503842, 38.4064691755658], [-110.766923895683, 38.4063923799814], [-110.767116996283, 38.4063925144984], [-110.767197000649, 38.4064234794913], [-110.767253461863, 38.4064825760431], [-110.767285801498, 38.4065554253553], [-110.767288693676, 38.4066273195083], [-110.767099687311, 38.4073102970073], [-110.767032580902, 38.4074466423931], [-110.766923903965, 38.4076087833132], [-110.766844179394, 38.4077809697255], [-110.767027376912, 38.4078130056143], [-110.767188820085, 38.4078819870014], [-110.767367246282, 38.4080058070653], [-110.767413608517, 38.40806702766], [-110.767433990835, 38.408138613463], [-110.767431888201, 38.4082147236706], [-110.767387251826, 38.4083176491011], [-110.767155499508, 38.4085479489159], [-110.767074575986, 38.408679643234], [-110.767032762204, 38.4088598892689], [-110.767055788858, 38.4090079144502], [-110.767126867113, 38.4090986569781], [-110.767308970179, 38.4092175177322], [-110.767501559077, 38.4093188557624], [-110.767707275888, 38.4094041576904], [-110.768493606288, 38.4096287712746], [-110.768861001939, 38.4096746572037], [-110.768999892751, 38.4096786348287], [-110.769464341477, 38.4096549895301], [-110.769645655481, 38.4096258424917], [-110.76981427932, 38.4095630105636], [-110.770089697028, 38.4094267610335], [-110.770439701382, 38.4093293537073], [-110.770991719001, 38.409264409855], [-110.771223097385, 38.4092743590558], [-110.771439123729, 38.409341250566], [-110.771890702902, 38.4096000019307], [-110.772056544225, 38.4096675430424], [-110.772373440211, 38.4097240410006], [-110.772594352997, 38.4097804062292], [-110.773274055183, 38.4099004892431], [-110.773709005164, 38.4100312060528], [-110.774060886355, 38.4102080907136], [-110.774506915424, 38.4105316226398], [-110.774590994308, 38.4106171774975], [-110.77470285622, 38.4108971417586], [-110.774758802817, 38.4111495527915], [-110.77477254784, 38.4117357814719], [-110.774721046656, 38.4120987186263], [-110.774658758346, 38.4122760272801], [-110.774603133826, 38.4123766729997], [-110.774254429858, 38.4128089682321], [-110.773941096848, 38.4133001982188], [-110.773639180931, 38.4136690365284], [-110.773371076919, 38.4140545550132], [-110.773115705087, 38.4144854917652], [-110.77296642201, 38.4147934256025], [-110.772789808561, 38.4152491529958], [-110.77275947883, 38.4153936973482], [-110.772757151203, 38.4155032485378], [-110.77280185113, 38.4157579231196], [-110.772846355842, 38.4158618110371], [-110.772947453254, 38.4159850439689], [-110.773084770698, 38.4160849326563], [-110.773168214921, 38.4161154793692], [-110.773305524181, 38.4161404151918], [-110.773488029346, 38.4161689158293], [-110.773627111725, 38.4161737696429], [-110.774134741111, 38.4161205070011], [-110.774354999179, 38.4160640685017], [-110.77451559519, 38.4159904625717], [-110.774795919921, 38.4157976213121], [-110.775107570617, 38.4156380159055], [-110.775527660723, 38.4153497022348], [-110.775929322336, 38.4151665645955], [-110.776313046032, 38.4149585032988], [-110.777002154953, 38.4144678677023], [-110.777699547989, 38.4141044599291], [-110.77795422375, 38.414015855441], [-110.7782707086, 38.413954992488], [-110.778779504991, 38.4139133070924], [-110.779103393844, 38.4139292097191], [-110.779378419259, 38.4139004515702], [-110.779793075503, 38.4139541364768], [-110.780037742173, 38.4140581883645], [-110.780613607493, 38.4143696075753], [-110.780985035148, 38.4145215352698], [-110.781252059735, 38.4145858541463], [-110.781751846925, 38.4146725796194], [-110.782770546853, 38.4149285991288], [-110.783496583819, 38.4150574756163], [-110.783978278822, 38.4151933419756], [-110.784177468861, 38.4152866351428], [-110.784346131826, 38.4154197454519], [-110.784390899189, 38.415519084001], [-110.784335888891, 38.4156630085844], [-110.784220991008, 38.4157771548451], [-110.784175098187, 38.4158450208635], [-110.784146024839, 38.4159207851469], [-110.784164634247, 38.4159835542403], [-110.78423802643, 38.416027953519], [-110.784379706138, 38.4160686038235], [-110.784753661929, 38.4160946889723], [-110.784835431338, 38.4161227218442], [-110.784959886876, 38.4162340897161], [-110.785030030173, 38.416371898413], [-110.785019187721, 38.4164797733495], [-110.784866815962, 38.4167492688042], [-110.784720891319, 38.4170965510564], [-110.784707471602, 38.417243569956], [-110.784748275143, 38.4173867357989], [-110.784828945915, 38.4175187552562], [-110.78494883479, 38.4176306760953], [-110.785146643965, 38.4177286511284], [-110.785324633234, 38.417769421765], [-110.785511089446, 38.4177712382954], [-110.785975293004, 38.4177403413604], [-110.786426707606, 38.417652290634], [-110.786507538856, 38.4176181239934], [-110.786647722344, 38.4175189765051], [-110.786762440002, 38.4174039465963], [-110.786830549181, 38.4173072011449], [-110.786876305983, 38.4172041304328], [-110.786894962336, 38.4170944061328], [-110.786890527311, 38.4169459353274], [-110.786868018249, 38.4168755106681], [-110.786795228261, 38.416782273646], [-110.786525010856, 38.4165296088076], [-110.786405300717, 38.4163725140014], [-110.78626133614, 38.416101858094], [-110.786229825405, 38.4158835154974], [-110.786247026826, 38.4157378444471], [-110.786290611217, 38.4155953015458], [-110.786437152149, 38.4153662445061], [-110.786518473715, 38.4152769305656], [-110.786617510592, 38.4151999214611], [-110.786919771319, 38.4150287762557], [-110.787126107997, 38.4149441969084], [-110.787300664196, 38.4148932656969], [-110.787485701912, 38.4148708669742], [-110.787623394247, 38.4148803884495], [-110.787802094715, 38.4149246810584], [-110.788184984212, 38.4150580432001], [-110.788659411699, 38.4152904984721], [-110.788825102137, 38.4153571356051], [-110.789138833371, 38.4154266211971], [-110.789323649115, 38.4154376606482], [-110.789601923607, 38.4154075834396], [-110.789770476678, 38.4153501507878], [-110.790522432649, 38.4148581417916], [-110.790724150451, 38.4147623750185], [-110.790858750799, 38.4147451747976], [-110.791089031101, 38.4147841206954], [-110.791221641456, 38.414820442921], [-110.791327826337, 38.414887960258], [-110.791711992482, 38.4152577655545], [-110.79196485054, 38.4156091526017], [-110.792219028997, 38.4159152253111], [-110.792404409338, 38.4162513024975], [-110.79244294291, 38.4163947424143], [-110.792456347696, 38.416541225156], [-110.79241331358, 38.4172734193423], [-110.79244355013, 38.4175659698925], [-110.792497250046, 38.4177436968303], [-110.792627038159, 38.4179790387252], [-110.792672426566, 38.4181216486907], [-110.792684510625, 38.4182673883343], [-110.792660290178, 38.4187065112421], [-110.792687898716, 38.4188883006582], [-110.792750063237, 38.4190270731388], [-110.792927854463, 38.4192855012636], [-110.792964889871, 38.4194273165627], [-110.792920247148, 38.419904132883], [-110.792889100775, 38.4200099529575], [-110.792784497584, 38.4202149761305], [-110.792310865701, 38.4210110482987], [-110.792070761466, 38.4213670364105], [-110.792028147933, 38.4215085616506], [-110.792036006139, 38.4217658922578], [-110.792073687898, 38.4218706030513], [-110.792168938553, 38.4220396872216], [-110.792271823815, 38.4221599835124], [-110.792714153708, 38.4224875281554], [-110.792745450125, 38.422555082471], [-110.792741584541, 38.4226684361643], [-110.792679302295, 38.422770801282], [-110.792570897978, 38.4228363057965], [-110.7924312886, 38.4228577249592], [-110.792106598145, 38.4228726541798], [-110.791800033134, 38.4229594408957], [-110.791593545627, 38.4230548812423], [-110.791541718607, 38.4231108255604], [-110.791520783016, 38.4232208271534], [-110.791540904474, 38.4233312764636], [-110.791609745345, 38.4234683383114], [-110.791686154348, 38.4235620389448], [-110.7917933154, 38.4236285361822], [-110.792276762196, 38.4237668758966], [-110.793497214704, 38.4240011082204], [-110.794004155232, 38.4240535130938], [-110.794540223242, 38.4241800543682], [-110.794676725029, 38.424195132879], [-110.794859811763, 38.4241630279341], [-110.795032525026, 38.4241086986002], [-110.795425426171, 38.4239112056874], [-110.795545785175, 38.4238009025171], [-110.795788416706, 38.4234861426283], [-110.795897961434, 38.4234204969404], [-110.795987620906, 38.4233951891549], [-110.796126380056, 38.4233810936505], [-110.797335428215, 38.4233981215536], [-110.797843090377, 38.4233447612013], [-110.798253136417, 38.4232833544963], [-110.79848939729, 38.4232709926227], [-110.79862240493, 38.4232919084567], [-110.798803272635, 38.4234099795887], [-110.798938900279, 38.4235588171613], [-110.799114260313, 38.4238166317002], [-110.799226805065, 38.4240188385053], [-110.799397694995, 38.4241914003395], [-110.799426288687, 38.4242628935607], [-110.799428429437, 38.4243366880401], [-110.799378408927, 38.4244475062344], [-110.799313795005, 38.4244923600111], [-110.799271103638, 38.4245011437063], [-110.798983114155, 38.4244836487347], [-110.798795969922, 38.4244900616786], [-110.798661758939, 38.4245207678757], [-110.798592575163, 38.4245661747467], [-110.798517441387, 38.4246628755164], [-110.798475661327, 38.4247681795509], [-110.7984326283, 38.4250226457642], [-110.79842772977, 38.4252056639995], [-110.79848419876, 38.4253451253966], [-110.798630184327, 38.4255333482863], [-110.799353155175, 38.4262043757088], [-110.799395957171, 38.4263111748641], [-110.799374494397, 38.4264185336738], [-110.799311247273, 38.4264758650046], [-110.799182545885, 38.4265221596841], [-110.798813187113, 38.4264729771218], [-110.798552731992, 38.4263952502029], [-110.798311928699, 38.4262185115521], [-110.79819205926, 38.4261643951832], [-110.798103691959, 38.4261615518609], [-110.797869440952, 38.4261953426524], [-110.797683501002, 38.4261961889499], [-110.797083493438, 38.4261352006175], [-110.796772418674, 38.4260617947326], [-110.796310911068, 38.4260084126272], [-110.795674590692, 38.4259012424132], [-110.795229922953, 38.4257925349257], [-110.794806889715, 38.4256405672333], [-110.794436800578, 38.425605007197], [-110.7942976323, 38.4256056034782], [-110.793929253612, 38.4256475003211], [-110.792649941049, 38.4258376205919], [-110.791350029004, 38.4259092075057], [-110.791163193451, 38.4259056370511], [-110.790980477934, 38.4258762812302], [-110.79081512026, 38.4258114097779], [-110.790633475614, 38.4256952279816], [-110.790446721974, 38.4255308980572], [-110.790386910285, 38.4254324781383], [-110.790363542132, 38.4253233249015], [-110.79037827359, 38.425177048504], [-110.790567121388, 38.4247243199811], [-110.79059267122, 38.4245794430665], [-110.790570445385, 38.4244701515737], [-110.790535543863, 38.4244021302037], [-110.790456066884, 38.4243106065008], [-110.790355110115, 38.4242343262296], [-110.790193071442, 38.4241627310918], [-110.789965472273, 38.4241198431287], [-110.789085231097, 38.4240620374724], [-110.788720348713, 38.4240059635497], [-110.788233704269, 38.4238806406446], [-110.787715612768, 38.423715774569], [-110.787317246349, 38.4236158865639], [-110.7870857085, 38.4235996596282], [-110.786806528289, 38.4236081630467], [-110.786437438601, 38.4236465119312], [-110.786266691113, 38.4237105244955], [-110.786181820887, 38.4237939450318], [-110.786133370529, 38.4239759083886], [-110.786153618223, 38.4241215622789], [-110.786256092635, 38.4243665368821], [-110.786348264622, 38.4244917462029], [-110.786601196214, 38.4246534900836], [-110.787665411911, 38.4250231854887], [-110.787859996768, 38.4251224523337], [-110.788040851657, 38.4252405392645], [-110.788110045303, 38.4253333089574], [-110.788244291113, 38.4256078512523], [-110.788325945561, 38.4259691331281], [-110.788390213374, 38.426106749857], [-110.788534247052, 38.4262509671489], [-110.788911489316, 38.4265231890026], [-110.789053419287, 38.4266685636271], [-110.7891114831, 38.4267699049056], [-110.789130570181, 38.4268407439791], [-110.789060010623, 38.4275356252551], [-110.789075022253, 38.4276439839192], [-110.789145567586, 38.4278585056053], [-110.789284679725, 38.4280475692403], [-110.789704163724, 38.4284411083063], [-110.789775826568, 38.4285344818714], [-110.78990847332, 38.4288471467532], [-110.789982296057, 38.4291353243052], [-110.78998915893, 38.4293187220791], [-110.79001655978, 38.4294246780749], [-110.790175910598, 38.4297304982133], [-110.790644594295, 38.4304061634152], [-110.790753409409, 38.430647660334], [-110.790896083956, 38.4310728995952], [-110.791009470718, 38.4313138431], [-110.791132283968, 38.4314687557219], [-110.791304916427, 38.4315923511421], [-110.791472213959, 38.4316551825633], [-110.791656153372, 38.4316789727571], [-110.791981129005, 38.4316594995161], [-110.79230007578, 38.4316046318934], [-110.792604996045, 38.4315153381201], [-110.79332920892, 38.4312660064322], [-110.793612528214, 38.431139589316], [-110.795223412331, 38.4306627778408], [-110.796413674213, 38.4303452513621], [-110.79696259907, 38.4302643263858], [-110.797193954272, 38.4302507576613], [-110.797566147024, 38.4302562556036], [-110.797796612367, 38.4302843357574], [-110.798112587846, 38.4303472137796], [-110.798588386239, 38.4304936865818], [-110.798871645934, 38.4306201294871], [-110.799250180888, 38.4307603186279], [-110.799673372993, 38.4303261476204], [-110.800042033329, 38.4299979205369], [-110.800177293773, 38.4298975484616], [-110.800328887208, 38.4298141627617], [-110.800658489664, 38.4296794115922], [-110.801503610754, 38.4293801591056], [-110.801620665051, 38.4293226300333], [-110.801919106174, 38.4290923090879], [-110.802708773155, 38.4285839241232], [-110.803172004579, 38.4283408589326], [-110.803743642828, 38.4279690597206], [-110.804264586082, 38.4276070122224], [-110.804768281918, 38.4271775128968], [-110.804853739022, 38.4270912970488], [-110.805071777471, 38.4268111040616], [-110.805276979727, 38.4264448648966], [-110.805320809414, 38.4261541728298], [-110.805325050648, 38.4260082591566], [-110.805231196908, 38.4253919752549], [-110.805002049429, 38.4252093201506], [-110.804918701838, 38.4251218849384], [-110.804867753031, 38.4249808530001], [-110.804867707326, 38.424796625487], [-110.804904908911, 38.4246918729891], [-110.805030979715, 38.4244544323461], [-110.805101416759, 38.4242426984369], [-110.805304033057, 38.4240420396965], [-110.805656662341, 38.4235260796673], [-110.805748812457, 38.423357772033], [-110.805855805903, 38.4230783897564], [-110.806003536747, 38.4223551612805], [-110.805975385036, 38.4220271335405], [-110.805894652922, 38.421739796147], [-110.80583061331, 38.4216437001834], [-110.805448268234, 38.4212718994007], [-110.805321171123, 38.4212340189885], [-110.805085360701, 38.421225568931], [-110.804808278612, 38.4212501160958], [-110.804538976428, 38.4213071346364], [-110.804414611238, 38.4213574263332], [-110.804266400875, 38.4214458284142], [-110.803958387718, 38.4216691917325], [-110.803715596475, 38.4218909725999], [-110.803562815038, 38.4219799274935], [-110.803431385912, 38.422001271593], [-110.803246635993, 38.4219676655562], [-110.803105010728, 38.4219676672453], [-110.803016743117, 38.4219882965706], [-110.802936811658, 38.4220268808678], [-110.802821149234, 38.4221429456007], [-110.802766774292, 38.4222840958898], [-110.80272668365, 38.4225011819824], [-110.802684028381, 38.4229759622645], [-110.802620656143, 38.4231534234144], [-110.802532737002, 38.4232390331627], [-110.80241287037, 38.4232941958175], [-110.802039306045, 38.4233105573089], [-110.80190443759, 38.423286258097], [-110.801524010263, 38.4231481166153], [-110.800666679891, 38.4227083175892], [-110.800029338353, 38.4224062275337], [-110.799841909821, 38.4222961778103], [-110.799711039404, 38.4221937259674], [-110.799565849418, 38.4220496601103], [-110.799401376932, 38.4217878183437], [-110.799214605721, 38.4215774448183], [-110.798569239172, 38.4209999745185], [-110.798439932715, 38.4208476622189], [-110.798239417851, 38.420517938114], [-110.798043612037, 38.4200675321119], [-110.797892033436, 38.4198402513947], [-110.797739924779, 38.4196563832559], [-110.797548089667, 38.4193635373096], [-110.797359536627, 38.418989015416], [-110.797222771827, 38.418638925744], [-110.797174771029, 38.4184605090985], [-110.797123928653, 38.4179862225464], [-110.79712226217, 38.4177651669148], [-110.797153115871, 38.4176982133078], [-110.797240496738, 38.4176099632688], [-110.797381628624, 38.417509783835], [-110.797463171836, 38.4174791354972], [-110.797602457431, 38.4174676824474], [-110.798161021393, 38.4174921376972], [-110.798671292695, 38.4174863168276], [-110.798982263034, 38.4174098127077], [-110.79925933621, 38.4172760037135], [-110.799365149483, 38.4172035807162], [-110.799453244416, 38.4171188545877], [-110.799792315712, 38.4166397754683], [-110.799957593918, 38.4163361797843], [-110.800029284762, 38.4160845614366], [-110.800031930332, 38.4159767724765], [-110.799965185819, 38.4158385571833], [-110.799851942539, 38.4156788824252], [-110.799476878715, 38.4153540524077], [-110.79902438324, 38.4150973033627], [-110.798154858017, 38.4147465774115], [-110.79771410479, 38.4144784680917], [-110.797496139726, 38.4142872260424], [-110.797206331605, 38.4139556761132], [-110.79649595216, 38.4132768061066], [-110.796342897736, 38.4130939559368], [-110.796222819609, 38.4129811648029], [-110.796180461025, 38.4129167575588], [-110.796032470896, 38.4125689313417], [-110.795779387143, 38.4120956617304], [-110.794793363454, 38.4108956763946], [-110.794575371308, 38.4104913058518], [-110.794474676123, 38.410209094974], [-110.794435645231, 38.4100286892114], [-110.794392492978, 38.4096266230032], [-110.794444361338, 38.4092256914402], [-110.794584908393, 38.4088004727854], [-110.794664118767, 38.4084016477832], [-110.794729643461, 38.4081887102964], [-110.794759250915, 38.4080063126738], [-110.794926906362, 38.4073231386386], [-110.795074837144, 38.4068997335327], [-110.795198132448, 38.4064702812029], [-110.795348864059, 38.4057096837525], [-110.795572174672, 38.4048111521263], [-110.795676537258, 38.4045302924952], [-110.795709249019, 38.4043113945203], [-110.795695839971, 38.4041649120874], [-110.795654059644, 38.4040227695412], [-110.795476223758, 38.4037237149478], [-110.795326259368, 38.4035386857004], [-110.794793142342, 38.40302889886], [-110.794576279454, 38.4027047691397], [-110.794550986771, 38.4025976560534], [-110.79453544516, 38.4023773788839], [-110.794560125791, 38.4017909942737], [-110.79460254375, 38.4016485867103], [-110.794775486066, 38.4013079444592], [-110.795044828087, 38.4006070319311], [-110.795159787397, 38.4004070696886], [-110.795212521872, 38.4002290945509], [-110.795299561123, 38.4000587038524], [-110.795367360436, 38.3998454893037], [-110.795529121175, 38.3995016841328], [-110.795646078393, 38.3991849804165], [-110.795731372445, 38.3988621783224], [-110.795853254002, 38.3985466837911], [-110.795921694977, 38.3982963641198], [-110.796030793914, 38.3980158321412], [-110.79605207403, 38.3979075924629], [-110.796111243198, 38.3969557912007], [-110.796152449294, 38.3966636161219], [-110.796287073632, 38.396238205726], [-110.796698746522, 38.395581451443], [-110.796847075544, 38.3950451052208], [-110.79686292987, 38.3948986895841], [-110.796855533105, 38.3938727702479], [-110.796872708263, 38.3937270976277], [-110.796916258928, 38.393584550882], [-110.797217855797, 38.3928526265819], [-110.797320123892, 38.3926478762068], [-110.797837963524, 38.3918689758921], [-110.798089253924, 38.3913960096467], [-110.798933505978, 38.3902145036767], [-110.79903380675046, 38.3899938]]]}}, {"type": "Feature", "properties": {"mukey": "55162", "musym": "35", "muname": "Farb-Farb,very shallow-Rock outcrop complex"}, "geometry": {"type": "Polygon", "coordinates": [[[-110.764844672668, 38.4289362620291], [-110.76461248978, 38.4289399363158], [-110.764338406923, 38.4289793765826], [-110.764209926865, 38.4290210895597], [-110.764, 38.42913342657224], [-110.764, 38.4319974], [-110.77153595704237, 38.4319974], [-110.771496672254, 38.4319792618245], [-110.771158607845, 38.4317844328256], [-110.770756923285, 38.431599099863], [-110.770290154905, 38.4313584195718], [-110.770084552499, 38.4312740034129], [-110.769950711921, 38.4312432231223], [-110.769765143229, 38.4312286289503], [-110.76888464669, 38.4312908069944], [-110.768741750462, 38.4312845992695], [-110.768652083263, 38.4312638303443], [-110.768550713078, 38.4311911959628], [-110.768492495194, 38.4310889635882], [-110.768428420629, 38.4305774549326], [-110.768343796941, 38.4303682421907], [-110.768251290344, 38.430241256583], [-110.768113606664, 38.4300935428322], [-110.767985478183, 38.4299871173849], [-110.767875686514, 38.4299191127782], [-110.767312955496, 38.4296611243808], [-110.76677463448, 38.4294426270237], [-110.766246531715, 38.4293032638806], [-110.7656133086, 38.4290727518705], [-110.765168845166, 38.4289648172917], [-110.764844672668, 38.4289362620291]]]}}]}